[
    {
        "Altitude(m)": 553508.5288416945,
        "Argument of Periapsis(deg)": 0.026491964442854003,
        "Eccentricity": 0.0,
        "Inclination(deg)": 53.0,
        "Latitude(deg)": 14.130244708575345,
        "Longitude(deg)": -64.05894317425917,
        "Mean Anomaly(deg)": -197.81532852968965,
        "RAAN(deg)": 229.96057347411204,
        "Satellite Name": "Starlink Shell 1 1019",
        "Satellite Number": 1019,
        "Semi-Major Axis(m)": 6931778.249405717,
        "Time(s)": 760
    },
    {
        "Altitude(m)": 553498.1065785346,
        "Argument of Periapsis(deg)": 0.02684054292236524,
        "Eccentricity": 0.0,
        "Inclination(deg)": 53.0,
        "Latitude(deg)": 13.635134362147175,
        "Longitude(deg)": -63.700590149288125,
        "Mean Anomaly(deg)": -197.18849732613296,
        "RAAN(deg)": 229.96005470403458,
        "Satellite Name": "Starlink Shell 1 1019",
        "Satellite Number": 1019,
        "Semi-Major Axis(m)": 6931778.249405717,
        "Time(s)": 770
    },
    {
        "Altitude(m)": 553490.2076733679,
        "Argument of Periapsis(deg)": 0.027189121401876473,
        "Eccentricity": 0.0,
        "Inclination(deg)": 53.0,
        "Latitude(deg)": 13.139368742947779,
        "Longitude(deg)": -63.3439016343772,
        "Mean Anomaly(deg)": -196.56166612257624,
        "RAAN(deg)": 229.9595359339571,
        "Satellite Name": "Starlink Shell 1 1019",
        "Satellite Number": 1019,
        "Semi-Major Axis(m)": 6931778.249405717,
        "Time(s)": 780
    },
    {
        "Altitude(m)": 553484.8586364764,
        "Argument of Periapsis(deg)": 0.02753769988138771,
        "Eccentricity": 0.0,
        "Inclination(deg)": 53.0,
        "Latitude(deg)": 12.642975257008265,
        "Longitude(deg)": -62.988810301557834,
        "Mean Anomaly(deg)": -195.93483491901947,
        "RAAN(deg)": 229.95901716387962,
        "Satellite Name": "Starlink Shell 1 1019",
        "Satellite Number": 1019,
        "Semi-Major Axis(m)": 6931778.249405717,
        "Time(s)": 790
    },
    {
        "Altitude(m)": 553482.0848180205,
        "Argument of Periapsis(deg)": 0.02788627836089895,
        "Eccentricity": 0.0,
        "Inclination(deg)": 53.0,
        "Latitude(deg)": 12.14598096541406,
        "Longitude(deg)": -62.635250013407585,
        "Mean Anomaly(deg)": -195.30800371546283,
        "RAAN(deg)": 229.95849839380213,
        "Satellite Name": "Starlink Shell 1 1019",
        "Satellite Number": 1019,
        "Semi-Major Axis(m)": 6931778.249405717,
        "Time(s)": 800
    },
    {
        "Altitude(m)": 553481.9103927297,
        "Argument of Periapsis(deg)": 0.02823485684041019,
        "Eccentricity": 0.0,
        "Inclination(deg)": 53.0,
        "Latitude(deg)": 11.648412599864992,
        "Longitude(deg)": -62.283155291825274,
        "Mean Anomaly(deg)": -194.68117251190606,
        "RAAN(deg)": 229.95797962372473,
        "Satellite Name": "Starlink Shell 1 1019",
        "Satellite Number": 1019,
        "Semi-Major Axis(m)": 6931778.249405717,
        "Time(s)": 810
    },
    {
        "Altitude(m)": 553484.3583451593,
        "Argument of Periapsis(deg)": 0.028583435319921423,
        "Eccentricity": 0.0,
        "Inclination(deg)": 53.0,
        "Latitude(deg)": 11.150296577936553,
        "Longitude(deg)": -61.93246078685682,
        "Mean Anomaly(deg)": -194.05434130834942,
        "RAAN(deg)": 229.95746085364723,
        "Satellite Name": "Starlink Shell 1 1019",
        "Satellite Number": 1019,
        "Semi-Major Axis(m)": 6931778.249405717,
        "Time(s)": 820
    },
    {
        "Altitude(m)": 553489.4504555378,
        "Argument of Periapsis(deg)": 0.028932013799432665,
        "Eccentricity": 0.0,
        "Inclination(deg)": 53.0,
        "Latitude(deg)": 10.651659018051202,
        "Longitude(deg)": -61.58310225845249,
        "Mean Anomaly(deg)": -193.4275101047926,
        "RAAN(deg)": 229.95694208356974,
        "Satellite Name": "Starlink Shell 1 1019",
        "Satellite Number": 1019,
        "Semi-Major Axis(m)": 6931778.249405717,
        "Time(s)": 830
    },
    {
        "Altitude(m)": 553497.2072861919,
        "Argument of Periapsis(deg)": 0.029280592278943897,
        "Eccentricity": 0.0,
        "Inclination(deg)": 53.0,
        "Latitude(deg)": 10.15252575417664,
        "Longitude(deg)": -61.23501604542241,
        "Mean Anomaly(deg)": -192.8006789012359,
        "RAAN(deg)": 229.95642331349228,
        "Satellite Name": "Starlink Shell 1 1019",
        "Satellite Number": 1019,
        "Semi-Major Axis(m)": 6931778.249405717,
        "Time(s)": 840
    },
    {
        "Altitude(m)": 553507.6481685865,
        "Argument of Periapsis(deg)": 0.029629170758455132,
        "Eccentricity": 0.0,
        "Inclination(deg)": 53.0,
        "Latitude(deg)": 9.652922350260802,
        "Longitude(deg)": -60.88813853446927,
        "Mean Anomaly(deg)": -192.17384769767924,
        "RAAN(deg)": 229.95590454341482,
        "Satellite Name": "Starlink Shell 1 1019",
        "Satellite Number": 1019,
        "Semi-Major Axis(m)": 6931778.249405717,
        "Time(s)": 850
    },
    {
        "Altitude(m)": 553520.7911909447,
        "Argument of Periapsis(deg)": 0.02997774923796637,
        "Eccentricity": 0.0,
        "Inclination(deg)": 53.0,
        "Latitude(deg)": 9.152874114415475,
        "Longitude(deg)": -60.54240731027431,
        "Mean Anomaly(deg)": -191.5470164941225,
        "RAAN(deg)": 229.95538577333733,
        "Satellite Name": "Starlink Shell 1 1019",
        "Satellite Number": 1019,
        "Semi-Major Axis(m)": 6931778.249405717,
        "Time(s)": 860
    },
    {
        "Altitude(m)": 553536.6531865043,
        "Argument of Periapsis(deg)": 0.030326327717477602,
        "Eccentricity": 0.0,
        "Inclination(deg)": 53.0,
        "Latitude(deg)": 8.652406112864295,
        "Longitude(deg)": -60.19775978421725,
        "Mean Anomaly(deg)": -190.9201852905658,
        "RAAN(deg)": 229.95486700325986,
        "Satellite Name": "Starlink Shell 1 1019",
        "Satellite Number": 1019,
        "Semi-Major Axis(m)": 6931778.249405717,
        "Time(s)": 870
    },
    {
        "Altitude(m)": 553555.2497223802,
        "Argument of Periapsis(deg)": 0.030674906196988847,
        "Eccentricity": 0.0,
        "Inclination(deg)": 53.0,
        "Latitude(deg)": 8.151543183662962,
        "Longitude(deg)": -59.85413434464266,
        "Mean Anomaly(deg)": -190.29335408700905,
        "RAAN(deg)": 229.95434823318237,
        "Satellite Name": "Starlink Shell 1 1019",
        "Satellite Number": 1019,
        "Semi-Major Axis(m)": 6931778.249405717,
        "Time(s)": 880
    },
    {
        "Altitude(m)": 553576.5950890505,
        "Argument of Periapsis(deg)": 0.031023484676500086,
        "Eccentricity": 0.0,
        "Inclination(deg)": 53.0,
        "Latitude(deg)": 7.650309950207533,
        "Longitude(deg)": -59.511469826249794,
        "Mean Anomaly(deg)": -189.66652288345236,
        "RAAN(deg)": 229.95382946310488,
        "Satellite Name": "Starlink Shell 1 1019",
        "Satellite Number": 1019,
        "Semi-Major Axis(m)": 6931778.249405717,
        "Time(s)": 890
    },
    {
        "Altitude(m)": 553600.7022904804,
        "Argument of Periapsis(deg)": 0.03137206315601132,
        "Eccentricity": 0.0,
        "Inclination(deg)": 53.0,
        "Latitude(deg)": 7.148730834541078,
        "Longitude(deg)": -59.16970497957659,
        "Mean Anomaly(deg)": -189.03969167989567,
        "RAAN(deg)": 229.95331069302745,
        "Satellite Name": "Starlink Shell 1 1019",
        "Satellite Number": 1019,
        "Semi-Major Axis(m)": 6931778.249405717,
        "Time(s)": 900
    },
    {
        "Altitude(m)": 553627.5830348716,
        "Argument of Periapsis(deg)": 0.03172064163552255,
        "Eccentricity": 0.0,
        "Inclination(deg)": 53.0,
        "Latitude(deg)": 6.646830070470574,
        "Longitude(deg)": -58.828779453451546,
        "Mean Anomaly(deg)": -188.41286047633895,
        "RAAN(deg)": 229.95279192294996,
        "Satellite Name": "Starlink Shell 1 1019",
        "Satellite Number": 1019,
        "Semi-Major Axis(m)": 6931778.249405717,
        "Time(s)": 910
    },
    {
        "Altitude(m)": 553657.2477260727,
        "Argument of Periapsis(deg)": 0.0320692201150338,
        "Eccentricity": 0.0,
        "Inclination(deg)": 53.0,
        "Latitude(deg)": 6.1446317165074,
        "Longitude(deg)": -58.4886332646645,
        "Mean Anomaly(deg)": -187.78602927278217,
        "RAAN(deg)": 229.95227315287246,
        "Satellite Name": "Starlink Shell 1 1019",
        "Satellite Number": 1019,
        "Semi-Major Axis(m)": 6931778.249405717,
        "Time(s)": 920
    },
    {
        "Altitude(m)": 553689.705455619,
        "Argument of Periapsis(deg)": 0.032417798594545036,
        "Eccentricity": 0.0,
        "Inclination(deg)": 53.0,
        "Latitude(deg)": 5.642159668643043,
        "Longitude(deg)": -58.149206267729596,
        "Mean Anomaly(deg)": -187.1591980692255,
        "RAAN(deg)": 229.95175438279506,
        "Satellite Name": "Starlink Shell 1 1019",
        "Satellite Number": 1019,
        "Semi-Major Axis(m)": 6931778.249405717,
        "Time(s)": 930
    },
    {
        "Altitude(m)": 553724.9639954296,
        "Argument of Periapsis(deg)": 0.03276637707405627,
        "Eccentricity": 0.0,
        "Inclination(deg)": 53.0,
        "Latitude(deg)": 5.139437672969135,
        "Longitude(deg)": -57.810439137607894,
        "Mean Anomaly(deg)": -186.5323668656688,
        "RAAN(deg)": 229.95123561271757,
        "Satellite Name": "Starlink Shell 1 1019",
        "Satellite Number": 1019,
        "Semi-Major Axis(m)": 6931778.249405717,
        "Time(s)": 940
    }
]